[{"OBJECT_NAME":"STARLINK-6331","OBJECT_ID":"2023-099Z","EPOCH":"2025-12-22T04:27:55.318752","MEAN_MOTION":15.02548387,"ECCENTRICITY":0.00014266,"INCLINATION":43.0054,"RA_OF_ASC_NODE":309.6234,"ARG_OF_PERICENTER":266.6464,"MEAN_ANOMALY":93.4215,"EPHEMERIS_TYPE":0,"CLASSIFICATION_TYPE":"U","NORAD_CAT_ID":57351,"ELEMENT_SET_NO":999,"REV_AT_EPOCH":13446,"BSTAR":-7.4624054e-5,"MEAN_MOTION_DOT":-1.212e-5,"MEAN_MOTION_DDOT":0},{"OBJECT_NAME":"STARLINK-6297","OBJECT_ID":"2023-099AA","EPOCH":"2025-12-22T12:30:17.034336","MEAN_MOTION":15.02542721,"ECCENTRICITY":0.00010975,"INCLINATION":43.005,"RA_OF_ASC_NODE":295.6711,"ARG_OF_PERICENTER":264.6286,"MEAN_ANOMALY":95.4431,"EPHEMERIS_TYPE":0,"CLASSIFICATION_TYPE":"U","NORAD_CAT_ID":57352,"ELEMENT_SET_NO":999,"REV_AT_EPOCH":13465,"BSTAR":0.00011510536,"MEAN_MOTION_DOT":1.352e-5,"MEAN_MOTION_DDOT":0},{"OBJECT_NAME":"STARLINK-6324","OBJECT_ID":"2023-099AB","EPOCH":"2025-12-22T13:59:06.052416","MEAN_MOTION":15.0253436,"ECCENTRICITY":0.0001041,"INCLINATION":43.002,"RA_OF_ASC_NODE":307.4405,"ARG_OF_PERICENTER":263.9061,"MEAN_ANOMALY":96.1663,"EPHEMERIS_TYPE":0,"CLASSIFICATION_TYPE":"U","NORAD_CAT_ID":57353,"ELEMENT_SET_NO":999,"REV_AT_EPOCH":13452,"BSTAR":9.8940997e-5,"MEAN_MOTION_DOT":1.133e-5,"MEAN_MOTION_DDOT":0},{"OBJECT_NAME":"STARLINK-6293","OBJECT_ID":"2023-099AC","EPOCH":"2025-12-22T20:16:09.017184","MEAN_MOTION":15.02533706,"ECCENTRICITY":0.0001146,"INCLINATION":43.004,"RA_OF_ASC_NODE":293.797,"ARG_OF_PERICENTER":269.8913,"MEAN_ANOMALY":90.1798,"EPHEMERIS_TYPE":0,"CLASSIFICATION_TYPE":"U","NORAD_CAT_ID":57354,"ELEMENT_SET_NO":999,"REV_AT_EPOCH":13470,"BSTAR":-1.2858e-5,"MEAN_MOTION_DOT":-3.77e-6,"MEAN_MOTION_DDOT":0},{"OBJECT_NAME":"STARLINK-6276","OBJECT_ID":"2023-099AD","EPOCH":"2025-12-22T20:33:43.529184","MEAN_MOTION":15.02539003,"ECCENTRICITY":0.0001375,"INCLINATION":43.0051,"RA_OF_ASC_NODE":293.8894,"ARG_OF_PERICENTER":266.3633,"MEAN_ANOMALY":93.7052,"EPHEMERIS_TYPE":0,"CLASSIFICATION_TYPE":"U","NORAD_CAT_ID":57355,"ELEMENT_SET_NO":999,"REV_AT_EPOCH":13470,"BSTAR":0.00010716,"MEAN_MOTION_DOT":1.244e-5,"MEAN_MOTION_DDOT":0},{"OBJECT_NAME":"STARLINK-6355","OBJECT_ID":"2023-099AE","EPOCH":"2025-12-22T20:14:33.039744","MEAN_MOTION":15.02537293,"ECCENTRICITY":0.0001343,"INCLINATION":43.0046,"RA_OF_ASC_NODE":293.7881,"ARG_OF_PERICENTER":282.8687,"MEAN_ANOMALY":77.2005,"EPHEMERIS_TYPE":0,"CLASSIFICATION_TYPE":"U","NORAD_CAT_ID":57356,"ELEMENT_SET_NO":999,"REV_AT_EPOCH":13470,"BSTAR":4.7167e-7,"MEAN_MOTION_DOT":-1.97e-6,"MEAN_MOTION_DDOT":0},{"OBJECT_NAME":"STARLINK-5600","OBJECT_ID":"2023-099AF","EPOCH":"2025-12-22T20:25:43.870080","MEAN_MOTION":15.0253646,"ECCENTRICITY":0.0001647,"INCLINATION":43.0053,"RA_OF_ASC_NODE":293.8481,"ARG_OF_PERICENTER":271.6946,"MEAN_ANOMALY":88.3707,"EPHEMERIS_TYPE":0,"CLASSIFICATION_TYPE":"U","NORAD_CAT_ID":57357,"ELEMENT_SET_NO":999,"REV_AT_EPOCH":13470,"BSTAR":-7.4204e-5,"MEAN_MOTION_DOT":-1.206e-5,"MEAN_MOTION_DDOT":0},{"OBJECT_NAME":"STARLINK-6299","OBJECT_ID":"2023-099AG","EPOCH":"2025-12-22T04:09:16.499232","MEAN_MOTION":15.025461,"ECCENTRICITY":0.00012899,"INCLINATION":43.0049,"RA_OF_ASC_NODE":297.3538,"ARG_OF_PERICENTER":268.71,"MEAN_ANOMALY":91.3595,"EPHEMERIS_TYPE":0,"CLASSIFICATION_TYPE":"U","NORAD_CAT_ID":57358,"ELEMENT_SET_NO":999,"REV_AT_EPOCH":13534,"BSTAR":8.9041762e-5,"MEAN_MOTION_DOT":1.0e-5,"MEAN_MOTION_DDOT":0},{"OBJECT_NAME":"STARLINK-6347","OBJECT_ID":"2023-099AH","EPOCH":"2025-12-22T02:57:31.375584","MEAN_MOTION":15.02537744,"ECCENTRICITY":0.00012482,"INCLINATION":43.0052,"RA_OF_ASC_NODE":297.8447,"ARG_OF_PERICENTER":267.9122,"MEAN_ANOMALY":92.1577,"EPHEMERIS_TYPE":0,"CLASSIFICATION_TYPE":"U","NORAD_CAT_ID":57359,"ELEMENT_SET_NO":999,"REV_AT_EPOCH":13459,"BSTAR":5.7702585e-5,"MEAN_MOTION_DOT":5.76e-6,"MEAN_MOTION_DDOT":0},{"OBJECT_NAME":"STARLINK-6348","OBJECT_ID":"2023-099AJ","EPOCH":"2025-12-22T05:35:22.372512","MEAN_MOTION":15.02558141,"ECCENTRICITY":0.00014833,"INCLINATION":43.0074,"RA_OF_ASC_NODE":296.9463,"ARG_OF_PERICENTER":268.0421,"MEAN_ANOMALY":92.0251,"EPHEMERIS_TYPE":0,"CLASSIFICATION_TYPE":"U","NORAD_CAT_ID":57360,"ELEMENT_SET_NO":999,"REV_AT_EPOCH":13461,"BSTAR":0.00025538625,"MEAN_MOTION_DOT":3.25e-5,"MEAN_MOTION_DDOT":0},{"OBJECT_NAME":"STARLINK-6340","OBJECT_ID":"2023-099AK","EPOCH":"2025-12-22T02:36:44.474976","MEAN_MOTION":15.02538817,"ECCENTRICITY":0.0001729,"INCLINATION":43.0068,"RA_OF_ASC_NODE":297.7376,"ARG_OF_PERICENTER":284.382,"MEAN_ANOMALY":75.6831,"EPHEMERIS_TYPE":0,"CLASSIFICATION_TYPE":"U","NORAD_CAT_ID":57361,"ELEMENT_SET_NO":999,"REV_AT_EPOCH":13459,"BSTAR":-6.7417266e-5,"MEAN_MOTION_DOT":-1.114e-5,"MEAN_MOTION_DDOT":0},{"OBJECT_NAME":"STARLINK-6343","OBJECT_ID":"2023-099AL","EPOCH":"2025-12-21T05:34:42.521376","MEAN_MOTION":15.02541989,"ECCENTRICITY":0.0001054,"INCLINATION":43.0031,"RA_OF_ASC_NODE":302.3399,"ARG_OF_PERICENTER":269.7284,"MEAN_ANOMALY":90.3438,"EPHEMERIS_TYPE":0,"CLASSIFICATION_TYPE":"U","NORAD_CAT_ID":57362,"ELEMENT_SET_NO":999,"REV_AT_EPOCH":13446,"BSTAR":-3.2452e-5,"MEAN_MOTION_DOT":-6.42e-6,"MEAN_MOTION_DDOT":0},{"OBJECT_NAME":"STARLINK-6356","OBJECT_ID":"2023-099AM","EPOCH":"2025-12-22T20:01:45.684192","MEAN_MOTION":15.02537124,"ECCENTRICITY":8.48e-5,"INCLINATION":43.0034,"RA_OF_ASC_NODE":293.721,"ARG_OF_PERICENTER":272.5612,"MEAN_ANOMALY":87.5133,"EPHEMERIS_TYPE":0,"CLASSIFICATION_TYPE":"U","NORAD_CAT_ID":57363,"ELEMENT_SET_NO":999,"REV_AT_EPOCH":13470,"BSTAR":-2.7124e-7,"MEAN_MOTION_DOT":-2.07e-6,"MEAN_MOTION_DDOT":0},{"OBJECT_NAME":"STARLINK-6338","OBJECT_ID":"2023-099AN","EPOCH":"2025-12-22T19:50:34.679328","MEAN_MOTION":15.02526726,"ECCENTRICITY":0.0001143,"INCLINATION":43.0042,"RA_OF_ASC_NODE":293.6614,"ARG_OF_PERICENTER":268.8567,"MEAN_ANOMALY":91.2144,"EPHEMERIS_TYPE":0,"CLASSIFICATION_TYPE":"U","NORAD_CAT_ID":57364,"ELEMENT_SET_NO":999,"REV_AT_EPOCH":13470,"BSTAR":-8.6853e-5,"MEAN_MOTION_DOT":-1.376e-5,"MEAN_MOTION_DDOT":0},{"OBJECT_NAME":"STARLINK-5007","OBJECT_ID":"2023-099AP","EPOCH":"2025-12-22T13:13:17.715936","MEAN_MOTION":15.02541876,"ECCENTRICITY":0.00012181,"INCLINATION":43.0038,"RA_OF_ASC_NODE":295.0256,"ARG_OF_PERICENTER":268.2602,"MEAN_ANOMALY":91.8101,"EPHEMERIS_TYPE":0,"CLASSIFICATION_TYPE":"U","NORAD_CAT_ID":57365,"ELEMENT_SET_NO":999,"REV_AT_EPOCH":13466,"BSTAR":0.00017891448,"MEAN_MOTION_DOT":2.214e-5,"MEAN_MOTION_DDOT":0},{"OBJECT_NAME":"STARLINK-6174","OBJECT_ID":"2023-099AQ","EPOCH":"2025-12-22T05:19:26.752224","MEAN_MOTION":15.02540405,"ECCENTRICITY":0.000108,"INCLINATION":43.0061,"RA_OF_ASC_NODE":296.8607,"ARG_OF_PERICENTER":270.1589,"MEAN_ANOMALY":89.9129,"EPHEMERIS_TYPE":0,"CLASSIFICATION_TYPE":"U","NORAD_CAT_ID":57366,"ELEMENT_SET_NO":999,"REV_AT_EPOCH":13461,"BSTAR":3.1102114e-5,"MEAN_MOTION_DOT":2.17e-6,"MEAN_MOTION_DDOT":0}]
