STARLINK-6331           
1 57351U 23099Z   25356.18605693 -.00001212  00000+0 -74624-4 0  9997
2 57351  43.0054 309.6234 0001426 266.6464  93.4215 15.02548387134468
STARLINK-6297           
1 57352U 23099AA  25356.52103049  .00001352  00000+0  11511-3 0  9992
2 57352  43.0050 295.6711 0001097 264.6286  95.4431 15.02542721134652
STARLINK-6324           
1 57353U 23099AB  25356.58270894  .00001133  00000+0  98941-4 0  9992
2 57353  43.0020 307.4405 0001041 263.9061  96.1663 15.02534360134525
STARLINK-6293           
1 57354U 23099AC  25356.84454881 -.00000377  00000+0 -12858-4 0  9996
2 57354  43.0040 293.7970 0001146 269.8913  90.1798 15.02533706134705
STARLINK-6276           
1 57355U 23099AD  25356.85675381  .00001244  00000+0  10716-3 0  9990
2 57355  43.0051 293.8894 0001375 266.3633  93.7052 15.02539003134707
STARLINK-6355           
1 57356U 23099AE  25356.84343796 -.00000197  00000+0  47167-6 0  9992
2 57356  43.0046 293.7881 0001343 282.8687  77.2005 15.02537293134708
STARLINK-5600           
1 57357U 23099AF  25356.85120220 -.00001206  00000+0 -74204-4 0  9992
2 57357  43.0053 293.8481 0001647 271.6946  88.3707 15.02536460134702
STARLINK-6299           
1 57358U 23099AG  25356.17310763  .00001000  00000+0  89042-4 0  9997
2 57358  43.0049 297.3538 0001289 268.7100  91.3595 15.02546100135343
STARLINK-6347           
1 57359U 23099AH  25356.12327981  .00000576  00000+0  57703-4 0  9999
2 57359  43.0052 297.8447 0001248 267.9122  92.1577 15.02537744134591
STARLINK-6348           
1 57360U 23099AJ  25356.23289783  .00003250  00000+0  25539-3 0  9993
2 57360  43.0074 296.9463 0001483 268.0421  92.0251 15.02558141134615
STARLINK-6340           
1 57361U 23099AK  25356.10884809 -.00001114  00000+0 -67417-4 0  9991
2 57361  43.0068 297.7376 0001729 284.3820  75.6831 15.02538817134594
STARLINK-6343           
1 57362U 23099AL  25355.23243659 -.00000642  00000+0 -32452-4 0  9993
2 57362  43.0031 302.3399 0001054 269.7284  90.3438 15.02541989134462
STARLINK-6356           
1 57363U 23099AM  25356.83455653 -.00000207  00000+0 -27124-6 0  9999
2 57363  43.0034 293.7210 0000848 272.5612  87.5133 15.02537124134701
STARLINK-6338           
1 57364U 23099AN  25356.82679027 -.00001376  00000+0 -86853-4 0  9992
2 57364  43.0042 293.6614 0001143 268.8567  91.2144 15.02526726134704
STARLINK-5007           
1 57365U 23099AP  25356.55089949  .00002214  00000+0  17891-3 0  9996
2 57365  43.0038 295.0256 0001218 268.2602  91.8101 15.02541876134662
STARLINK-6174           
1 57366U 23099AQ  25356.22183741  .00000217  00000+0  31102-4 0  9999
2 57366  43.0061 296.8607 0001080 270.1589  89.9129 15.02540405134611
